
# Worst residual: 166.21 km
# MJD 60946.000000 (2025 Sep 28  0:00)
A11s4E5 = A11s7Oa
1 79870U 25000ZYW 25271.49919926  .00000000  00000-0  00000-0 0 28478
2 79870 041.2687 050.6904 7426145 098.8283 337.3181 00.93717718    01

# Worst residual: 212.35 km
# MJD 60947.000000 (2025 Sep 29  0:00)
A11s4E5 = A11s7Oa
1 79870U 25000ZYW 25272.49919926  .00000000  00000-0  00000-0 0 28479
2 79870 041.3038 050.2255 7394150 099.8758 312.8544 00.93561287    04

# Worst residual: 214.82 km
# MJD 60948.000000 (2025 Sep 30  0:00)
A11s4E5 = A11s7Oa
1 79870U 25000ZYW 25273.49919926  .00000000  00000-0  00000-0 0 28470
2 79870 041.3394 049.7796 7357026 100.9066 288.4416 00.93429881    08

# Worst residual: 156.67 km
# MJD 60949.000000 (2025 Oct  1  0:00)
A11s4E5 = A11s7Oa
1 79870U 25000ZYW 25274.49919926  .00000000  00000-0  00000-0 0 28471
2 79870 041.3790 049.3629 7316629 101.9372 264.0909 00.93320568    03

# Worst residual: 89.05 km
# MJD 60950.000000 (2025 Oct  2  0:00)
A11s4E5 = A11s7Oa
1 79870U 25000ZYW 25275.49919926  .00000000  00000-0  00000-0 0 28472
2 79870 041.4169 048.9488 7274770 102.9813 239.7767 00.93250136    07

# Worst residual: 113.51 km
# MJD 60951.000000 (2025 Oct  3  0:00)
A11s4E5 = A11s7Oa
1 79870U 25000ZYW 25276.49919926  .00000000  00000-0  00000-0 0 28473
2 79870 041.4700 048.5292 7234024 104.0850 215.4190 00.93215843    06

# Worst residual: 120.50 km
# MJD 60952.000000 (2025 Oct  4  0:00)
A11s4E5 = A11s7Oa
1 79870U 25000ZYW 25277.49919926  .00000000  00000-0  00000-0 0 28474
2 79870 041.5291 048.1027 7198273 105.1991 191.1140 00.93247194    06

# Worst residual: 104.67 km
# MJD 60953.000000 (2025 Oct  5  0:00)
A11s4E5 = A11s7Oa
1 79870U 25000ZYW 25278.49919926  .00000000  00000-0  00000-0 0 28475
2 79870 041.5975 047.6778 7168457 106.3223 166.7787 00.93368599    02

# Worst residual: 198.59 km
# MJD 60954.000000 (2025 Oct  6  0:00)
A11s4E5 = A11s7Oa
1 79870U 25000ZYW 25279.49919926  .00000000  00000-0  00000-0 0 28476
2 79870 041.6672 047.3112 7143164 107.3177 142.6355 00.93537800    00

# Worst residual: 229.24 km
# MJD 60955.000000 (2025 Oct  7  0:00)
A11s4E5 = A11s7Oa
1 79870U 25000ZYW 25280.49919926  .00000000  00000-0  00000-0 0 28478
2 79870 041.7406 046.9506 7107890 108.3188 118.4228 00.93682039    02

# Worst residual: 237.84 km
# MJD 60956.000000 (2025 Oct  8  0:00)
A11s4E5 = A11s7Oa
1 79870U 25000ZYW 25281.49919926  .00000000  00000-0  00000-0 0 28479
2 79870 041.8117 046.5657 7067376 109.3316 094.2040 00.93816357    08

# Worst residual: 238.90 km
# MJD 60957.000000 (2025 Oct  9  0:00)
A11s4E5 = A11s7Oa
1 79870U 25000ZYW 25282.49919926  .00000000  00000-0  00000-0 0 28470
2 79870 041.9003 046.2330 7025072 110.3360 069.9327 00.93964400    06

# Worst residual: 186.75 km
# MJD 60958.000000 (2025 Oct 10  0:00)
A11s4E5 = A11s7Oa
1 79870U 25000ZYW 25283.49919926  .00000000  00000-0  00000-0 0 28471
2 79870 041.9835 045.8720 6979624 111.4144 045.5343 00.94043877    04

# Worst residual: 138.73 km
# MJD 60959.000000 (2025 Oct 11  0:00)
A11s4E5 = A11s7Oa
1 79870U 25000ZYW 25284.49919926  .00000000  00000-0  00000-0 0 28472
2 79870 042.0773 045.5126 6936062 112.5163 021.0888 00.94020113    07

# Worst residual: 160.75 km
# MJD 60960.000000 (2025 Oct 12  0:00)
A11s4E5 = A11s7Oa
1 79870U 25000ZYW 25285.49919926  .00000000  00000-0  00000-0 0 28473
2 79870 042.1510 045.1515 6894795 113.6309 356.6758 00.93915489    06

# Worst residual: 183.75 km
# MJD 60961.000000 (2025 Oct 13  0:00)
A11s4E5 = A11s7Oa
1 79870U 25000ZYW 25286.49919926  .00000000  00000-0  00000-0 0 28474
2 79870 042.2370 044.8368 6852014 114.7055 332.3257 00.93797651    05

# Worst residual: 233.35 km
# MJD 60962.000000 (2025 Oct 14  0:00)
A11s4E5 = A11s7Oa
1 79870U 25000ZYW 25287.49919926  .00000000  00000-0  00000-0 0 28475
2 79870 042.3027 044.5378 6807715 115.7195 308.1104 00.93607806    01

# Worst residual: 220.65 km
# MJD 60963.000000 (2025 Oct 15  0:00)
A11s4E5 = A11s7Oa
1 79870U 25000ZYW 25288.49919926  .00000000  00000-0  00000-0 0 28476
2 79870 042.3861 044.2111 6757335 116.7703 283.9522 00.93468297    00

# Worst residual: 146.91 km
# MJD 60964.000000 (2025 Oct 16  0:00)
A11s4E5 = A11s7Oa
1 79870U 25000ZYW 25289.49919926  .00000000  00000-0  00000-0 0 28477
2 79870 042.4544 043.9476 6705195 117.8004 259.8337 00.93348459    05

# Worst residual: 90.22 km
# MJD 60965.000000 (2025 Oct 17  0:00)
A11s4E5 = A11s7Oa
1 79870U 25000ZYW 25290.49919926  .00000000  00000-0  00000-0 0 28479
2 79870 042.5269 043.6888 6650486 118.8570 235.7169 00.93273818    07

# Worst residual: 105.54 km
# MJD 60966.000000 (2025 Oct 18  0:00)
A11s4E5 = A11s7Oa
1 79870U 25000ZYW 25291.49919926  .00000000  00000-0  00000-0 0 28470
2 79870 042.6040 043.4241 6600266 119.9842 211.5346 00.93255120    06

# Worst residual: 126.69 km
# MJD 60967.000000 (2025 Oct 19  0:00)
A11s4E5 = A11s7Oa
1 79870U 25000ZYW 25292.49919926  .00000000  00000-0  00000-0 0 28471
2 79870 042.6896 043.1834 6556431 121.0963 187.3698 00.93313172    04

# Worst residual: 149.45 km
# MJD 60968.000000 (2025 Oct 20  0:00)
A11s4E5 = A11s7Oa
1 79870U 25000ZYW 25293.49919926  .00000000  00000-0  00000-0 0 28472
2 79870 042.7744 042.9307 6521075 122.2050 163.2191 00.93466385    01

# Worst residual: 216.01 km
# MJD 60969.000000 (2025 Oct 21  0:00)
A11s4E5 = A11s7Oa
1 79870U 25000ZYW 25294.49919926  .00000000  00000-0  00000-0 0 28473
2 79870 042.8521 042.7173 6484716 123.2127 139.1820 00.93631880    05

# Worst residual: 229.27 km
# MJD 60970.000000 (2025 Oct 22  0:00)
A11s4E5 = A11s7Oa
1 79870U 25000ZYW 25295.49919926  .00000000  00000-0  00000-0 0 28474
2 79870 042.9311 042.5142 6440415 124.2256 115.0775 00.93791483    07

# Worst residual: 249.95 km
# MJD 60971.000000 (2025 Oct 23  0:00)
A11s4E5 = A11s7Oa
1 79870U 25000ZYW 25296.49919926  .00000000  00000-0  00000-0 0 28475
2 79870 043.0141 042.3130 6389422 125.2489 090.9256 00.93942703    02

# Worst residual: 223.33 km
# MJD 60972.000000 (2025 Oct 24  0:00)
A11s4E5 = A11s7Oa
1 79870U 25000ZYW 25297.49919926  .00000000  00000-0  00000-0 0 28476
2 79870 043.1102 042.1135 6336454 126.3147 066.6578 00.94050398    01
